{
  "type": "FeatureCollection",
  "features": [
    {
      "type": "Feature",
      "properties": {
        "norad_id": 37781,
        "name": "HAIYANG-2A",
        "group": "resource",
        "lat": -21.641090847993024,
        "lon": -6.191978720988208,
        "alt_km": 973.4393574268879,
        "timestamp": "2025-12-15T04:01:20.099565+00:00",
        "meta_object_name": "HAIYANG-2A",
        "meta_object_id": "2011-043A",
        "meta_epoch": "2025-12-14T07:13:48.484704",
        "meta_mean_motion": 13.78834804,
        "meta_eccentricity": 0.0001647,
        "meta_inclination": 99.3383,
        "meta_ra_of_asc_node": 349.2119,
        "meta_arg_of_pericenter": 81.2622,
        "meta_mean_anomaly": 278.8716,
        "meta_ephemeris_type": 0,
        "meta_classification_type": "U",
        "meta_norad_cat_id": 37781,
        "meta_element_set_no": 999,
        "meta_rev_at_epoch": 72120,
        "meta_bstar": -2.6728883e-05,
        "meta_mean_motion_dot": -7.1e-07,
        "meta_mean_motion_ddot": 0,
        "tle_line1": "1 37781U 11043A   25348.30125561 -.00000071  00000+0 -26729-4 0  9999",
        "tle_line2": "2 37781  99.3383 349.2119 0001647  81.2622 278.8716 13.78834804721208"
      },
      "geometry": {
        "type": "Point",
        "coordinates": [
          -6.191978720988208,
          -21.641090847993024
        ]
      }
    },
    {
      "type": "Feature",
      "properties": {
        "norad_id": 37791,
        "name": "RASAT",
        "group": "resource",
        "lat": 27.22111776873026,
        "lon": -97.42896232019733,
        "alt_km": 667.9041886249179,
        "timestamp": "2025-12-15T04:01:20.099575+00:00",
        "meta_object_name": "RASAT",
        "meta_object_id": "2011-044D",
        "meta_epoch": "2025-12-14T08:00:58.718880",
        "meta_mean_motion": 14.67914232,
        "meta_eccentricity": 0.00218356,
        "meta_inclination": 98.0644,
        "meta_ra_of_asc_node": 77.5676,
        "meta_arg_of_pericenter": 60.2363,
        "meta_mean_anomaly": 9.4849,
        "meta_ephemeris_type": 0,
        "meta_classification_type": "U",
        "meta_norad_cat_id": 37791,
        "meta_element_set_no": 999,
        "meta_rev_at_epoch": 76606,
        "meta_bstar": 0.00020481036,
        "meta_mean_motion_dot": 1.127e-05,
        "meta_mean_motion_ddot": 0,
        "tle_line1": "1 37791U 11044D   25348.33401295  .00001127  00000+0  20481-3 0  9994",
        "tle_line2": "2 37791  98.0644  77.5676 0021835  60.2363   9.4849 14.67914232766065"
      },
      "geometry": {
        "type": "Point",
        "coordinates": [
          -97.42896232019733,
          27.22111776873026
        ]
      }
    },
    {
      "type": "Feature",
      "properties": {
        "norad_id": 37841,
        "name": "SRMSAT",
        "group": "resource",
        "lat": -6.090650789413944,
        "lon": -69.65370590961685,
        "alt_km": 859.3650959139723,
        "timestamp": "2025-12-15T04:01:20.099586+00:00",
        "meta_object_name": "SRMSAT",
        "meta_object_id": "2011-058D",
        "meta_epoch": "2025-12-14T08:35:27.687840",
        "meta_mean_motion": 14.11512094,
        "meta_eccentricity": 0.00117951,
        "meta_inclination": 19.9714,
        "meta_ra_of_asc_node": 98.1565,
        "meta_arg_of_pericenter": 331.3293,
        "meta_mean_anomaly": 63.811,
        "meta_ephemeris_type": 0,
        "meta_classification_type": "U",
        "meta_norad_cat_id": 37841,
        "meta_element_set_no": 999,
        "meta_rev_at_epoch": 73167,
        "meta_bstar": 0.00011648684,
        "meta_mean_motion_dot": 4.79e-06,
        "meta_mean_motion_ddot": 0,
        "tle_line1": "1 37841U 11058D   25348.35795935  .00000479  00000+0  11649-3 0  9999",
        "tle_line2": "2 37841  19.9714  98.1565 0011795 331.3293  63.8110 14.11512094731678"
      },
      "geometry": {
        "type": "Point",
        "coordinates": [
          -69.65370590961685,
          -6.090650789413944
        ]
      }
    },
    {
      "type": "Feature",
      "properties": {
        "norad_id": 38012,
        "name": "PLEIADES 1A",
        "group": "resource",
        "lat": -45.185846972652115,
        "lon": -126.42812305709771,
        "alt_km": 705.3472418669317,
        "timestamp": "2025-12-15T04:01:20.099596+00:00",
        "meta_object_name": "PLEIADES 1A",
        "meta_object_id": "2011-076F",
        "meta_epoch": "2025-12-14T09:11:19.082400",
        "meta_mean_motion": 14.58564201,
        "meta_eccentricity": 0.00012727,
        "meta_inclination": 98.182,
        "meta_ra_of_asc_node": 61.1258,
        "meta_arg_of_pericenter": 74.3539,
        "meta_mean_anomaly": 353.2678,
        "meta_ephemeris_type": 0,
        "meta_classification_type": "U",
        "meta_norad_cat_id": 38012,
        "meta_element_set_no": 999,
        "meta_rev_at_epoch": 74505,
        "meta_bstar": 0.00015321048,
        "meta_mean_motion_dot": 6.67e-06,
        "meta_mean_motion_ddot": 0,
        "tle_line1": "1 38012U 11076F   25348.38285975  .00000667  00000+0  15321-3 0  9991",
        "tle_line2": "2 38012  98.1820  61.1258 0001272  74.3539 353.2678 14.58564201745051"
      },
      "geometry": {
        "type": "Point",
        "coordinates": [
          -126.42812305709771,
          -45.185846972652115
        ]
      }
    },
    {
      "type": "Feature",
      "properties": {
        "norad_id": 38038,
        "name": "ZIYUAN 1-02C (ZY 1-02C)",
        "group": "resource",
        "lat": -45.28502864113034,
        "lon": 63.75348633124085,
        "alt_km": 776.9538097898521,
        "timestamp": "2025-12-15T04:01:20.099607+00:00",
        "meta_object_name": "ZIYUAN 1-02C (ZY 1-02C)",
        "meta_object_id": "2011-079A",
        "meta_epoch": "2025-12-14T08:49:57.409248",
        "meta_mean_motion": 14.3801514,
        "meta_eccentricity": 0.00072607,
        "meta_inclination": 98.433,
        "meta_ra_of_asc_node": 54.3514,
        "meta_arg_of_pericenter": 134.0821,
        "meta_mean_anomaly": 3.2291,
        "meta_ephemeris_type": 0,
        "meta_classification_type": "U",
        "meta_norad_cat_id": 38038,
        "meta_element_set_no": 999,
        "meta_rev_at_epoch": 73264,
        "meta_bstar": 0.00026807305,
        "meta_mean_motion_dot": 7.68e-06,
        "meta_mean_motion_ddot": 0,
        "tle_line1": "1 38038U 11079A   25348.36802557  .00000768  00000+0  26807-3 0  9994",
        "tle_line2": "2 38038  98.4330  54.3514 0007260 134.0821   3.2291 14.38015140732643"
      },
      "geometry": {
        "type": "Point",
        "coordinates": [
          63.75348633124085,
          -45.28502864113034
        ]
      }
    },
    {
      "type": "Feature",
      "properties": {
        "norad_id": 38046,
        "name": "ZIYUAN 3-1 (ZY 3-1)",
        "group": "resource",
        "lat": 9.11878682929419,
        "lon": -123.19839297922884,
        "alt_km": 364.7986578633272,
        "timestamp": "2025-12-15T04:01:20.099618+00:00",
        "meta_object_name": "ZIYUAN 3-1 (ZY 3-1)",
        "meta_object_id": "2012-001A",
        "meta_epoch": "2025-12-14T07:23:50.843904",
        "meta_mean_motion": 15.68861051,
        "meta_eccentricity": 0.00016797,
        "meta_inclination": 97.1758,
        "meta_ra_of_asc_node": 54.7627,
        "meta_arg_of_pericenter": 342.53,
        "meta_mean_anomaly": 17.5904,
        "meta_ephemeris_type": 0,
        "meta_classification_type": "U",
        "meta_norad_cat_id": 38046,
        "meta_element_set_no": 999,
        "meta_rev_at_epoch": 77521,
        "meta_bstar": 0.00068088569,
        "meta_mean_motion_dot": 0.00078442,
        "meta_mean_motion_ddot": 0,
        "tle_line1": "1 38046U 12001A   25348.30822736  .00078442  00000+0  68089-3 0  9996",
        "tle_line2": "2 38046  97.1758  54.7627 0001679 342.5300  17.5904 15.68861051775210"
      },
      "geometry": {
        "type": "Point",
        "coordinates": [
          -123.19839297922884,
          9.11878682929419
        ]
      }
    },
    {
      "type": "Feature",
      "properties": {
        "norad_id": 38338,
        "name": "ARIRANG-3 (KOMPSAT-3)",
        "group": "resource",
        "lat": 28.922662980728248,
        "lon": 128.4201330278415,
        "alt_km": 689.98600685778,
        "timestamp": "2025-12-15T04:01:20.099628+00:00",
        "meta_object_name": "ARIRANG-3 (KOMPSAT-3)",
        "meta_object_id": "2012-025B",
        "meta_epoch": "2025-12-14T07:37:14.485728",
        "meta_mean_motion": 14.6171555,
        "meta_eccentricity": 0.00052547,
        "meta_inclination": 98.3324,
        "meta_ra_of_asc_node": 302.9188,
        "meta_arg_of_pericenter": 333.6145,
        "meta_mean_anomaly": 26.4787,
        "meta_ephemeris_type": 0,
        "meta_classification_type": "U",
        "meta_norad_cat_id": 38338,
        "meta_element_set_no": 999,
        "meta_rev_at_epoch": 72433,
        "meta_bstar": 0.00017760425,
        "meta_mean_motion_dot": 8.36e-06,
        "meta_mean_motion_ddot": 0,
        "tle_line1": "1 38338U 12025B   25348.31752877  .00000836  00000+0  17760-3 0  9997",
        "tle_line2": "2 38338  98.3324 302.9188 0005254 333.6145  26.4787 14.61715550724336"
      },
      "geometry": {
        "type": "Point",
        "coordinates": [
          128.4201330278415,
          28.922662980728248
        ]
      }
    }
  ]
}